{
  "type": "FeatureCollection",
  "features": [
    {
      "type": "Feature",
      "properties": {
        "norad_id": 41599,
        "name": "CARTOSAT-2C",
        "group": "resource",
        "lat": -42.263316282303215,
        "lon": -129.14333197020918,
        "alt_km": 521.4715809624386,
        "timestamp": "2025-12-26T14:28:47.346464+00:00",
        "meta_object_name": "CARTOSAT-2C",
        "meta_object_id": "2016-040A",
        "meta_epoch": "2025-12-26T07:10:47.529408",
        "meta_mean_motion": 15.19241009,
        "meta_eccentricity": 0.0010584,
        "meta_inclination": 97.4746,
        "meta_ra_of_asc_node": 57.4082,
        "meta_arg_of_pericenter": 19.9395,
        "meta_mean_anomaly": 340.2251,
        "meta_ephemeris_type": 0,
        "meta_classification_type": "U",
        "meta_norad_cat_id": 41599,
        "meta_element_set_no": 999,
        "meta_rev_at_epoch": 52746,
        "meta_bstar": 0.00026415539,
        "meta_mean_motion_dot": 5.505e-05,
        "meta_mean_motion_ddot": 0,
        "tle_line1": "1 41599U 16040A   25360.29916122  .00005505  00000+0  26416-3 0  9993",
        "tle_line2": "2 41599  97.4746  57.4082 0010584  19.9395 340.2251 15.19241009527460"
      },
      "geometry": {
        "type": "Point",
        "coordinates": [
          -129.14333197020918,
          -42.263316282303215
        ]
      }
    },
    {
      "type": "Feature",
      "properties": {
        "norad_id": 41601,
        "name": "SKYSAT-C1",
        "group": "resource",
        "lat": -49.611819396413516,
        "lon": -151.44581699655689,
        "alt_km": 474.22492685319776,
        "timestamp": "2025-12-26T14:28:47.346474+00:00",
        "meta_object_name": "SKYSAT-C1",
        "meta_object_id": "2016-040C",
        "meta_epoch": "2025-12-26T00:56:42.616032",
        "meta_mean_motion": 15.32828423,
        "meta_eccentricity": 8.319e-05,
        "meta_inclination": 96.9807,
        "meta_ra_of_asc_node": 36.3031,
        "meta_arg_of_pericenter": 314.1232,
        "meta_mean_anomaly": 45.9943,
        "meta_ephemeris_type": 0,
        "meta_classification_type": "U",
        "meta_norad_cat_id": 41601,
        "meta_element_set_no": 999,
        "meta_rev_at_epoch": 53131,
        "meta_bstar": 0.00029756447,
        "meta_mean_motion_dot": 9.364e-05,
        "meta_mean_motion_ddot": 0,
        "tle_line1": "1 41601U 16040C   25360.03938213  .00009364  00000+0  29756-3 0  9991",
        "tle_line2": "2 41601  96.9807  36.3031 0000831 314.1232  45.9943 15.32828423531312"
      },
      "geometry": {
        "type": "Point",
        "coordinates": [
          -151.44581699655689,
          -49.611819396413516
        ]
      }
    },
    {
      "type": "Feature",
      "properties": {
        "norad_id": 41603,
        "name": "LAPAN-A3",
        "group": "resource",
        "lat": -40.760088013818596,
        "lon": 3.862309007663969,
        "alt_km": 473.1244583728512,
        "timestamp": "2025-12-26T14:28:47.346485+00:00",
        "meta_object_name": "LAPAN-A3",
        "meta_object_id": "2016-040E",
        "meta_epoch": "2025-12-26T06:49:09.478272",
        "meta_mean_motion": 15.31663168,
        "meta_eccentricity": 0.00086422,
        "meta_inclination": 97.1437,
        "meta_ra_of_asc_node": 357.3484,
        "meta_arg_of_pericenter": 277.3175,
        "meta_mean_anomaly": 82.7085,
        "meta_ephemeris_type": 0,
        "meta_classification_type": "U",
        "meta_norad_cat_id": 41603,
        "meta_element_set_no": 999,
        "meta_rev_at_epoch": 52833,
        "meta_bstar": 0.00015247468,
        "meta_mean_motion_dot": 4.592e-05,
        "meta_mean_motion_ddot": 0,
        "tle_line1": "1 41603U 16040E   25360.28413748  .00004592  00000+0  15247-3 0  9999",
        "tle_line2": "2 41603  97.1437 357.3484 0008642 277.3175  82.7085 15.31663168528334"
      },
      "geometry": {
        "type": "Point",
        "coordinates": [
          3.862309007663969,
          -40.760088013818596
        ]
      }
    },
    {
      "type": "Feature",
      "properties": {
        "norad_id": 41604,
        "name": "BIROS",
        "group": "resource",
        "lat": -66.09157591215816,
        "lon": 48.89452808297909,
        "alt_km": 297.02798593833177,
        "timestamp": "2025-12-26T14:28:47.346496+00:00",
        "meta_object_name": "BIROS",
        "meta_object_id": "2016-040F",
        "meta_epoch": "2025-12-26T01:12:43.306272",
        "meta_mean_motion": 15.95194722,
        "meta_eccentricity": 0.00039995,
        "meta_inclination": 97.0651,
        "meta_ra_of_asc_node": 32.0679,
        "meta_arg_of_pericenter": 121.8836,
        "meta_mean_anomaly": 238.283,
        "meta_ephemeris_type": 0,
        "meta_classification_type": "U",
        "meta_norad_cat_id": 41604,
        "meta_element_set_no": 999,
        "meta_rev_at_epoch": 53084,
        "meta_bstar": 0.00059208615,
        "meta_mean_motion_dot": 0.00229911,
        "meta_mean_motion_ddot": 2.2392825e-05,
        "tle_line1": "1 41604U 16040F   25360.05050123  .00229911  22393-4  59209-3 0  9993",
        "tle_line2": "2 41604  97.0651  32.0679 0003999 121.8836 238.2830 15.95194722530842"
      },
      "geometry": {
        "type": "Point",
        "coordinates": [
          48.89452808297909,
          -66.09157591215816
        ]
      }
    },
    {
      "type": "Feature",
      "properties": {
        "norad_id": 41727,
        "name": "GAOFEN-3",
        "group": "resource",
        "lat": -37.05384862418379,
        "lon": 12.386543144622443,
        "alt_km": 757.5415048358054,
        "timestamp": "2025-12-26T14:28:47.346506+00:00",
        "meta_object_name": "GAOFEN-3",
        "meta_object_id": "2016-049A",
        "meta_epoch": "2025-12-26T07:59:35.436192",
        "meta_mean_motion": 14.42217632,
        "meta_eccentricity": 0.00010829,
        "meta_inclination": 98.4039,
        "meta_ra_of_asc_node": 5.7118,
        "meta_arg_of_pericenter": 54.6678,
        "meta_mean_anomaly": 305.4613,
        "meta_ephemeris_type": 0,
        "meta_classification_type": "U",
        "meta_norad_cat_id": 41727,
        "meta_element_set_no": 999,
        "meta_rev_at_epoch": 49373,
        "meta_bstar": 0.00010944611,
        "meta_mean_motion_dot": 3.17e-06,
        "meta_mean_motion_ddot": 0,
        "tle_line1": "1 41727U 16049A   25360.33304903  .00000317  00000+0  10945-3 0  9994",
        "tle_line2": "2 41727  98.4039   5.7118 0001082  54.6678 305.4613 14.42217632493735"
      },
      "geometry": {
        "type": "Point",
        "coordinates": [
          12.386543144622443,
          -37.05384862418379
        ]
      }
    },
    {
      "type": "Feature",
      "properties": {
        "norad_id": 41771,
        "name": "SKYSAT-C4",
        "group": "resource",
        "lat": -68.80467525703835,
        "lon": 43.41598078634023,
        "alt_km": 447.3764557205013,
        "timestamp": "2025-12-26T14:28:47.346516+00:00",
        "meta_object_name": "SKYSAT-C4",
        "meta_object_id": "2016-058B",
        "meta_epoch": "2025-12-26T00:46:17.167296",
        "meta_mean_motion": 15.42627652,
        "meta_eccentricity": 0.000262,
        "meta_inclination": 96.9364,
        "meta_ra_of_asc_node": 24.5747,
        "meta_arg_of_pericenter": 122.1279,
        "meta_mean_anomaly": 238.0225,
        "meta_ephemeris_type": 0,
        "meta_classification_type": "U",
        "meta_norad_cat_id": 41771,
        "meta_element_set_no": 999,
        "meta_rev_at_epoch": 51872,
        "meta_bstar": 0.00035000874,
        "meta_mean_motion_dot": 0.00015166,
        "meta_mean_motion_ddot": 0,
        "tle_line1": "1 41771U 16058B   25360.03214314  .00015166  00000+0  35001-3 0  9994",
        "tle_line2": "2 41771  96.9364  24.5747 0002620 122.1279 238.0225 15.42627652518727"
      },
      "geometry": {
        "type": "Point",
        "coordinates": [
          43.41598078634023,
          -68.80467525703835
        ]
      }
    },
    {
      "type": "Feature",
      "properties": {
        "norad_id": 41772,
        "name": "SKYSAT-C5",
        "group": "resource",
        "lat": 31.254900881891405,
        "lon": -131.90292178578133,
        "alt_km": 461.22158632093306,
        "timestamp": "2025-12-26T14:28:47.346526+00:00",
        "meta_object_name": "SKYSAT-C5",
        "meta_object_id": "2016-058C",
        "meta_epoch": "2025-12-26T02:52:36.392160",
        "meta_mean_motion": 15.3411733,
        "meta_eccentricity": 0.00040435,
        "meta_inclination": 97.0738,
        "meta_ra_of_asc_node": 43.3114,
        "meta_arg_of_pericenter": 226.167,
        "meta_mean_anomaly": 133.924,
        "meta_ephemeris_type": 0,
        "meta_classification_type": "U",
        "meta_norad_cat_id": 41772,
        "meta_element_set_no": 999,
        "meta_rev_at_epoch": 51721,
        "meta_bstar": 0.00028335025,
        "meta_mean_motion_dot": 9.284e-05,
        "meta_mean_motion_ddot": 0,
        "tle_line1": "1 41772U 16058C   25360.11986565  .00009284  00000+0  28335-3 0  9994",
        "tle_line2": "2 41772  97.0738  43.3114 0004043 226.1670 133.9240 15.34117330517214"
      },
      "geometry": {
        "type": "Point",
        "coordinates": [
          -131.90292178578133,
          31.254900881891405
        ]
      }
    }
  ]
}